{
  "norad_id": 63883,
  "name": "STARLINK-33968",
  "history": [
    {
      "epoch": "2026-04-13T05:40:49.837152Z",
      "apogee_km": 574.7010618625845,
      "perigee_km": 569.3922335851075,
      "latitude_deg": -3.9191725485498185e-05,
      "longitude_deg": -139.11362838651993,
      "height_km": 574.5052715364585,
      "semi_major_axis_km": 6950.183647723846,
      "eccentricity": 0.00038192,
      "inclination_deg": 70.0013,
      "raan_deg": 147.5244,
      "arg_perigee_deg": 269.3459,
      "mean_anomaly_deg": 90.7262,
      "mean_motion_rev_day": 14.98332989
    },
    {
      "epoch": "2026-04-14T20:08:03.380064Z",
      "apogee_km": 574.8006424465448,
      "perigee_km": 569.2863692332112,
      "latitude_deg": 4.484136942982037e-06,
      "longitude_deg": -1.539379548403572,
      "height_km": 574.6000216899743,
      "semi_major_axis_km": 6950.180505839878,
      "eccentricity": 0.0003967,
      "inclination_deg": 69.9999,
      "raan_deg": 143.4843,
      "arg_perigee_deg": 267.3358,
      "mean_anomaly_deg": 92.7347,
      "mean_motion_rev_day": 14.98334005
    },
    {
      "epoch": "2026-04-15T20:10:04.257984Z",
      "apogee_km": 574.795211135337,
      "perigee_km": 569.286500166947,
      "latitude_deg": 3.814850028529958e-05,
      "longitude_deg": -5.555047380366268,
      "height_km": 574.6188006557991,
      "semi_major_axis_km": 6950.177855651142,
      "eccentricity": 0.0003963,
      "inclination_deg": 70.0001,
      "raan_deg": 140.9593,
      "arg_perigee_deg": 266.887,
      "mean_anomaly_deg": 93.1836,
      "mean_motion_rev_day": 14.98334862
    },
    {
      "epoch": "2026-04-16T12:11:25.024128Z",
      "apogee_km": 574.7029521589147,
      "perigee_km": 569.3777262816038,
      "latitude_deg": -1.570281665380746e-05,
      "longitude_deg": 111.76699078111825,
      "height_km": 574.5336111137331,
      "semi_major_axis_km": 6950.177339220259,
      "eccentricity": 0.0003831,
      "inclination_deg": 70.0003,
      "raan_deg": 139.2759,
      "arg_perigee_deg": 268.601,
      "mean_anomaly_deg": 91.471,
      "mean_motion_rev_day": 14.98335029
    },
    {
      "epoch": "2026-04-17T21:50:14.006112Z",
      "apogee_km": 574.8566239303645,
      "perigee_km": 569.2019686317108,
      "latitude_deg": -4.304238035484995e-05,
      "longitude_deg": -37.85333943410689,
      "height_km": 574.5970849042114,
      "semi_major_axis_km": 6950.166296281038,
      "eccentricity": 0.0004068,
      "inclination_deg": 69.9994,
      "raan_deg": 135.7415,
      "arg_perigee_deg": 267.1745,
      "mean_anomaly_deg": 92.8948,
      "mean_motion_rev_day": 14.983386
    },
    {
      "epoch": "2026-04-18T20:16:06.769920Z",
      "apogee_km": 574.8685373692488,
      "perigee_km": 569.2013671593731,
      "latitude_deg": 5.146455601750582e-05,
      "longitude_deg": -17.601076038771602,
      "height_km": 574.6067673012908,
      "semi_major_axis_km": 6950.171952264311,
      "eccentricity": 0.0004077,
      "inclination_deg": 69.9994,
      "raan_deg": 133.3848,
      "arg_perigee_deg": 267.0992,
      "mean_anomaly_deg": 92.9701,
      "mean_motion_rev_day": 14.98336771
    },
    {
      "epoch": "2026-04-19T20:18:07.727328Z",
      "apogee_km": 574.8748433763758,
      "perigee_km": 569.2132259055579,
      "latitude_deg": -8.353699441210169e-06,
      "longitude_deg": -21.617012807759078,
      "height_km": 574.6350234030675,
      "semi_major_axis_km": 6950.181034640967,
      "eccentricity": 0.0004073,
      "inclination_deg": 69.9994,
      "raan_deg": 130.8599,
      "arg_perigee_deg": 266.7077,
      "mean_anomaly_deg": 93.3616,
      "mean_motion_rev_day": 14.98333834
    },
    {
      "epoch": "2026-04-20T13:55:36.574752Z",
      "apogee_km": 574.872097807528,
      "perigee_km": 569.2309078073386,
      "latitude_deg": 3.390206120247254e-05,
      "longitude_deg": 71.43738353024527,
      "height_km": 574.6280383133744,
      "semi_major_axis_km": 6950.188502807433,
      "eccentricity": 0.00040583,
      "inclination_deg": 69.9996,
      "raan_deg": 129.0083,
      "arg_perigee_deg": 266.9897,
      "mean_anomaly_deg": 93.0798,
      "mean_motion_rev_day": 14.98331419
    },
    {
      "epoch": "2026-04-21T18:46:01.737120Z",
      "apogee_km": 574.8584001691224,
      "perigee_km": 569.232922323109,
      "latitude_deg": -4.754607281920447e-06,
      "longitude_deg": -5.381706612494121,
      "height_km": 574.6340445112555,
      "semi_major_axis_km": 6950.1826612461155,
      "eccentricity": 0.0004047,
      "inclination_deg": 69.9998,
      "raan_deg": 125.9785,
      "arg_perigee_deg": 266.7398,
      "mean_anomaly_deg": 93.3298,
      "mean_motion_rev_day": 14.98333308
    },
    {
      "epoch": "2026-04-22T12:23:30.363360Z",
      "apogee_km": 574.860338625932,
      "perigee_km": 569.220964479463,
      "latitude_deg": -6.667930204133055e-06,
      "longitude_deg": 87.67369751143617,
      "height_km": 574.6455861956417,
      "semi_major_axis_km": 6950.177651552697,
      "eccentricity": 0.0004057,
      "inclination_deg": 69.9999,
      "raan_deg": 124.127,
      "arg_perigee_deg": 266.4113,
      "mean_anomaly_deg": 93.6582,
      "mean_motion_rev_day": 14.98334928
    },
    {
      "epoch": "2026-04-23T14:00:04.000032Z",
      "apogee_km": 574.7925513157925,
      "perigee_km": 569.177964550945,
      "latitude_deg": -5.6265188952875835,
      "longitude_deg": 57.74773197471709,
      "height_km": 575.0435199645848,
      "semi_major_axis_km": 6950.122257933369,
      "eccentricity": 0.00040392,
      "inclination_deg": 70.0003,
      "raan_deg": 121.4366,
      "arg_perigee_deg": 269.6304,
      "mean_anomaly_deg": 84.4872,
      "mean_motion_rev_day": 14.98352841
    },
    {
      "epoch": "2026-04-24T20:00:01.999008Z",
      "apogee_km": 574.9290911169219,
      "perigee_km": 569.3841468676901,
      "latitude_deg": -65.07854958290396,
      "longitude_deg": -163.4096779107262,
      "height_km": 593.6078575783007,
      "semi_major_axis_km": 6950.293618992306,
      "eccentricity": 0.0003989,
      "inclination_deg": 70.0004,
      "raan_deg": 118.285,
      "arg_perigee_deg": 265.8343,
      "mean_anomaly_deg": 348.743,
      "mean_motion_rev_day": 14.98297428
    },
    {
      "epoch": "2026-04-25T17:17:57.206400Z",
      "apogee_km": 574.8024881890651,
      "perigee_km": 569.2784871218773,
      "latitude_deg": -6.056238927573923e-06,
      "longitude_deg": 2.824270834867886,
      "height_km": 574.6839196315507,
      "semi_major_axis_km": 6950.177487655471,
      "eccentricity": 0.0003974,
      "inclination_deg": 70.0003,
      "raan_deg": 116.0479,
      "arg_perigee_deg": 265.5348,
      "mean_anomaly_deg": 94.5357,
      "mean_motion_rev_day": 14.98334981
    },
    {
      "epoch": "2026-04-26T22:00:00.999936Z",
      "apogee_km": 574.9103241650864,
      "perigee_km": 569.3287121604799,
      "latitude_deg": -29.354820217101462,
      "longitude_deg": -83.63359106587988,
      "height_km": 581.3806579015818,
      "semi_major_axis_km": 6950.256518162783,
      "eccentricity": 0.00040154,
      "inclination_deg": 69.9999,
      "raan_deg": 113.0317,
      "arg_perigee_deg": 263.5601,
      "mean_anomaly_deg": 65.2182,
      "mean_motion_rev_day": 14.98309425
    },
    {
      "epoch": "2026-04-27T17:21:59.059872Z",
      "apogee_km": 574.8313273110452,
      "perigee_km": 569.2503345128234,
      "latitude_deg": -7.905735846698124e-05,
      "longitude_deg": -5.208326257082177,
      "height_km": 574.6404376750353,
      "semi_major_axis_km": 6950.1778309119345,
      "eccentricity": 0.0004015,
      "inclination_deg": 69.9997,
      "raan_deg": 110.9971,
      "arg_perigee_deg": 266.4824,
      "mean_anomaly_deg": 93.5875,
      "mean_motion_rev_day": 14.9833487
    },
    {
      "epoch": "2026-04-28T09:23:19.858848Z",
      "apogee_km": 574.652593271142,
      "perigee_km": 569.4246711605892,
      "latitude_deg": -4.6612234567873324e-05,
      "longitude_deg": 112.11280519244545,
      "height_km": 574.5830187893729,
      "semi_major_axis_km": 6950.175632215865,
      "eccentricity": 0.0003761,
      "inclination_deg": 70.0001,
      "raan_deg": 109.3129,
      "arg_perigee_deg": 267.4524,
      "mean_anomaly_deg": 92.6204,
      "mean_motion_rev_day": 14.98335581
    },
    {
      "epoch": "2026-04-29T09:25:20.596800Z",
      "apogee_km": 574.5073864106253,
      "perigee_km": 569.5647013487405,
      "latitude_deg": -2.547061425081862e-05,
      "longitude_deg": 108.09761623066007,
      "height_km": 574.6868337655312,
      "semi_major_axis_km": 6950.173043879683,
      "eccentricity": 0.00035558,
      "inclination_deg": 70.0008,
      "raan_deg": 106.7878,
      "arg_perigee_deg": 264.8294,
      "mean_anomaly_deg": 95.2459,
      "mean_motion_rev_day": 14.98336418
    },
    {
      "epoch": "2026-04-30T09:27:23.118048Z",
      "apogee_km": 574.4470121982076,
      "perigee_km": 569.717804903853,
      "latitude_deg": -4.305176118038727e-05,
      "longitude_deg": 104.07526194739391,
      "height_km": 574.4146243494067,
      "semi_major_axis_km": 6950.21940855103,
      "eccentricity": 0.00034022,
      "inclination_deg": 70.0013,
      "raan_deg": 104.263,
      "arg_perigee_deg": 272.3194,
      "mean_anomaly_deg": 87.7575,
      "mean_motion_rev_day": 14.98321425
    },
    {
      "epoch": "2026-05-02T07:55:17.476032Z",
      "apogee_km": 574.4194793236366,
      "perigee_km": 569.693347802413,
      "latitude_deg": -7.601055678979996e-05,
      "longitude_deg": 120.30870222691232,
      "height_km": 574.5867801441407,
      "semi_major_axis_km": 6950.1934135630245,
      "eccentricity": 0.00034,
      "inclination_deg": 70.0013,
      "raan_deg": 99.3812,
      "arg_perigee_deg": 267.516,
      "mean_anomaly_deg": 92.5609,
      "mean_motion_rev_day": 14.98329831
    }
  ]
}